{"type":"FeatureCollection","features":[{"type":"Feature","properties":{"name":"Indonesia"},"geometry":{"type":"MultiPolygon","coordinates":[[[[117.6,4.2],[119,1],[117.9,1.1],[116,-3.6],[110.3,-3],[109.3,1.9],[110.6,0.9],[114.5,1.4],[115.8,4.4],[117.6,4.2]]],[[[141,-2.6],[141,-9.1],[140.2,-7.9],[138.9,-8.3],[138.1,-5.4],[133.9,-2.9],[132.9,-4.1],[132,-2.8],[133.9,-2.1],[130.9,-1.4],[134,-0.7],[135.3,-3.4],[137.8,-1.5],[141,-2.6]]],[[[109.9,-7.8],[105.2,-6.8],[106.1,-5.9],[111,-6.4],[114.6,-8.7],[109.9,-7.8]]],[[[119.8,-0.9],[120.8,1.3],[125.2,1.7],[124.3,0.4],[120.2,0.2],[120.7,-1.4],[123.5,-0.8],[121.3,-1.8],[122.9,-4.4],[121.6,-4.7],[120.6,-2.7],[119.7,-5.7],[118.8,-2.8],[119.8,-0.9]]],[[[100.9,1.8],[103.7,0.3],[104.5,-2.8],[106,-3],[105.7,-5.9],[102.3,-4],[95.2,5.6],[97.5,5.2],[100.9,1.8]]],[[[127.7,-0.2],[128,2.2],[127.6,0.9],[128.7,1.6],[128.9,0.2],[127.9,0.4],[128.4,-0.9],[127.7,-0.2]]]]}},{"type":"Feature","properties":{"name":"Malaysia"},"geometry":{"type":"MultiPolygon","coordinates":[[[[102.1,6.3],[104.3,1.4],[100.7,3.9],[100.2,6.7],[101.1,5.6],[102.1,6.3]]],[[[115.1,4.9],[116.8,7],[119.3,5.3],[118.6,4.4],[115.8,4.4],[114.5,1.4],[109.7,1.6],[111.4,1.4],[111.5,2.7],[115.1,4.9]]]]}},{"type":"Feature","properties":{"name":"Chile"},"geometry":{"type":"MultiPolygon","coordinates":[[[[-69.5,-17.5],[-67,-23],[-70.5,-31.2],[-69.8,-34.2],[-72.1,-42.6],[-71.1,-44.5],[-72.1,-44.8],[-71.7,-46.7],[-73.6,-49.5],[-72,-52],[-68.4,-52.3],[-70.9,-52.7],[-71.3,-53.9],[-72.5,-53.4],[-71.4,-52.7],[-73.3,-53.2],[-71.6,-52.6],[-73.7,-52.7],[-72.5,-51.8],[-73.9,-51.6],[-74.6,-48],[-73.2,-48],[-75.7,-46.7],[-74.4,-45.8],[-73.7,-46.5],[-72.6,-44.5],[-72.3,-41.4],[-73.9,-41],[-73.7,-37.3],[-71.6,-33.5],[-70.4,-18.3],[-69.5,-17.5]]],[[[-68.6,-54.8],[-72,-54.5],[-69,-54.5],[-70.5,-53.3],[-69.4,-52.5],[-68.6,-54.8]]]]}},{"type":"Feature","properties":{"name":"Bolivia"},"geometry":{"type":"Polygon","coordinates":[[[-69.5,-17.5],[-68.7,-12.5],[-69.6,-11],[-65.4,-9.7],[-65,-12],[-60.5,-13.8],[-60.2,-16.3],[-58.3,-16.3],[-57.5,-18.2],[-58.2,-20.2],[-61.8,-19.6],[-62.7,-22.2],[-64.3,-22.9],[-66.2,-21.8],[-67.8,-22.9],[-69.5,-17.5]]]}},{"type":"Feature","properties":{"name":"Peru"},"geometry":{"type":"MultiPolygon","coordinates":[[[[-69.5,-17.5],[-70.4,-18.3],[-75.9,-14.6],[-81.1,-6],[-80.8,-3.7],[-79.1,-5],[-75.6,-1.5],[-75.6,-0.1],[-72.9,-2.4],[-70.1,-2.7],[-70,-4.3],[-72.9,-5.1],[-74,-7.5],[-72.2,-10],[-70.5,-9.4],[-70.6,-11],[-68.7,-12.5],[-69.5,-17.5]]]]}},{"type":"Feature","properties":{"name":"Argentina"},"geometry":{"type":"MultiPolygon","coordinates":[[[[-67.2,-22.8],[-66.2,-21.8],[-64.3,-22.9],[-62.8,-22],[-57.8,-25.2],[-58.6,-27.3],[-55.8,-27.4],[-54.6,-25.6],[-53.7,-26.3],[-57.9,-30.6],[-58.6,-34.3],[-56.7,-36.6],[-57.6,-38.1],[-62.4,-38.8],[-62.7,-41],[-65.1,-40.8],[-63.6,-42.8],[-64.9,-42.7],[-65.5,-44.9],[-67.6,-46],[-65.8,-47.9],[-69,-50],[-69.6,-51.6],[-68.4,-52.4],[-72,-52],[-73.6,-49.9],[-71.7,-46.7],[-72.1,-44.8],[-71.1,-44.5],[-72.1,-42.6],[-69.8,-34.2],[-70.6,-31.3],[-67.2,-22.8]]],[[[-68.6,-54.8],[-68.6,-52.6],[-65.1,-54.6],[-68.6,-54.8]]]]}},{"type":"Feature","properties":{"name":"India"},"geometry":{"type":"MultiPolygon","coordinates":[[[[77.8,35.5],[79.6,32.8],[78.4,32.5],[78.7,31.3],[81,30.2],[80,28.8],[82.8,27.5],[88,26.4],[88.6,28.1],[89.1,26.8],[91.9,26.8],[91.6,27.9],[96.1,29.4],[97.4,28],[95.1,26.6],[92.9,22],[92.3,23.7],[91.1,23.6],[92.5,24.9],[88.4,26.6],[89.1,21.6],[87.9,22.4],[86.4,20],[80.3,15.7],[79.5,9.2],[77.5,8.1],[73.4,16.1],[72.9,22.3],[70.7,20.7],[68.9,22.3],[70.5,23.1],[68.1,23.6],[71.1,24.4],[69.5,27.1],[71.9,28],[75.4,32.3],[73.9,34.6],[77.8,35.5]]]]}},{"type":"Feature","properties":{"name":"China"},"geometry":{"type":"MultiPolygon","coordinates":[[[[78.9,33.4],[78,35.5],[74.4,37.1],[74.8,38.5],[73.6,39.4],[80.2,42],[79.9,44.9],[82.5,45.1],[83,47.2],[85.5,47.1],[86.9,49.1],[90.3,47.7],[90.9,45.2],[95.4,44.3],[96.4,42.7],[105,41.6],[110.4,42.8],[111.9,43.7],[112,45.1],[119.9,46.7],[118.5,48],[115.5,48.1],[116.7,49.8],[119.3,50.1],[120.9,53.3],[125.6,53.1],[127.5,49.8],[130.7,48.9],[131,47.7],[134.7,48.3],[133.1,45.1],[130.9,44.8],[130.5,42.5],[121.2,38.7],[121.9,41],[117.7,39.1],[119.1,37.2],[122.7,37.4],[119.2,35],[121.9,31.8],[119.6,32.4],[122,31],[120.1,30.2],[122.1,29.9],[121.7,28.3],[116.5,22.9],[113.4,23.1],[113.5,22.2],[110.4,21.4],[110.3,20.3],[109.6,21.7],[107.3,21.6],[105.3,23.4],[101.7,22.5],[101.8,21.1],[100.2,21.4],[98.9,24.1],[97.5,23.9],[98.7,27.6],[96.1,29.4],[92,27.7],[86,27.9],[78.7,31.3],[78.4,32.5],[79.6,32.7],[78.9,33.4]]],[[[111,19.7],[108.7,18.5],[109.3,19.9],[111,19.7]]]]}},{"type":"Feature","properties":{"name":"Israel"},"geometry":{"type":"Polygon","coordinates":[[[34.2,31.2],[35.8,33.4],[34.9,29.5],[34.2,31.2]]]}},{"type":"Feature","properties":{"name":"Ethiopia"},"geometry":{"type":"Polygon","coordinates":[[[34.1,9.5],[36.5,14.3],[37.9,14.9],[40.8,14.1],[42.4,12.5],[41.8,11],[42.9,11],[44,9],[48,8],[44.9,4.9],[39.5,3.4],[35.9,4.5],[33,7.9],[34.1,9.5]]]}},{"type":"Feature","properties":{"name":"South Sudan"},"geometry":{"type":"Polygon","coordinates":[[[35.9,4.6],[32.2,3.5],[28.4,4.3],[24.2,8.7],[25.8,10.4],[26.6,9.5],[31.2,9.8],[33.2,12.2],[34.1,8.6],[33,7.9],[35.9,4.6]]]}},{"type":"Feature","properties":{"name":"Somalia"},"geometry":{"type":"Polygon","coordinates":[[[46.5,6.5],[48.9,9.5],[48.9,11.2],[51.3,11.8],[47.9,4.5],[41.5,-1.7],[41,2.8],[46.5,6.5]]]}},{"type":"Feature","properties":{"name":"Kenya"},"geometry":{"type":"MultiPolygon","coordinates":[[[[35.7,4.6],[39.5,3.4],[41.9,4],[41,2.8],[41.5,-1.7],[39.4,-4.6],[33.9,-1],[35,1.9],[34,4.2],[35.7,4.6]]]]}},{"type":"Feature","properties":{"name":"Malawi"},"geometry":{"type":"MultiPolygon","coordinates":[[[[35,-11.6],[34.5,-13.3],[35.9,-14.9],[35.2,-17.1],[34.5,-14.6],[32.7,-13.6],[33.7,-10.6],[32.9,-9.4],[34.3,-9.7],[35,-11.6]]]]}},{"type":"Feature","properties":{"name":"United Republic of Tanzania"},"geometry":{"type":"MultiPolygon","coordinates":[[[[32.9,-9.4],[29.5,-6.3],[30.5,-1.1],[34,-1],[37.6,-3],[39.2,-4.7],[40.4,-10.5],[35,-11.6],[34.3,-9.7],[32.9,-9.4]]]]}},{"type":"Feature","properties":{"name":"Syria"},"geometry":{"type":"Polygon","coordinates":[[[35.8,32.7],[36.6,36.8],[42.3,37.2],[41,34.4],[35.8,32.7]]]}},{"type":"Feature","properties":{"name":"Somaliland"},"geometry":{"type":"Polygon","coordinates":[[[48.9,11.2],[48,8],[44,9],[42.6,10.6],[43.3,11.5],[44.6,10.4],[48.9,11.2]]]}},{"type":"Feature","properties":{"name":"France"},"geometry":{"type":"MultiPolygon","coordinates":[[[[-54.1,2.1],[-53.9,5.7],[-51.6,4.2],[-54.1,2.1]]],[[[2.5,51.1],[8.2,49],[6,46.2],[6.8,46.4],[7.7,44.1],[2.7,42.3],[-1.5,43],[-1.1,45.6],[-0.5,45],[-1.1,46.3],[-4.8,48.5],[-1.4,48.6],[-1.9,49.7],[0.4,49.5],[2.5,51.1]]],[[[8.6,42.2],[9.5,43],[9.2,41.4],[8.6,42.2]]]]}},{"type":"Feature","properties":{"name":"Suriname"},"geometry":{"type":"Polygon","coordinates":[[[-54.1,3.3],[-56.7,2],[-57.9,4.8],[-57,6],[-54,5.8],[-54.1,3.3]]]}},{"type":"Feature","properties":{"name":"Guyana"},"geometry":{"type":"MultiPolygon","coordinates":[[[[-56.5,1.9],[-59.8,1.9],[-59.7,4.4],[-61.4,5.9],[-60,8.6],[-58.7,6.4],[-57.2,6.1],[-58.1,4.2],[-56.5,1.9]]]]}},{"type":"Feature","properties":{"name":"South Korea"},"geometry":{"type":"MultiPolygon","coordinates":[[[[128.4,38.6],[129.5,35.5],[126.5,34.3],[126.5,37.8],[128.4,38.6]]]]}},{"type":"Feature","properties":{"name":"North Korea"},"geometry":{"type":"MultiPolygon","coordinates":[[[[128.4,38.6],[125.3,37.7],[125.5,39.6],[124.4,40.1],[130.1,43],[129.7,40.8],[127.5,39.7],[128.4,38.6]]]]}},{"type":"Feature","properties":{"name":"Morocco"},"geometry":{"type":"Polygon","coordinates":[[[-8.8,27.7],[-11.4,26.9],[-14.7,21.5],[-17,21.4],[-14.5,26.2],[-10.2,29.3],[-9.3,32.6],[-5.9,35.8],[-1.8,34.7],[-1.2,32.1],[-7.7,29.4],[-8.8,27.7]]]}},{"type":"Feature","properties":{"name":"Western Sahara"},"geometry":{"type":"Polygon","coordinates":[[[-8.8,27.7],[-8.7,26],[-12,26],[-13,21.3],[-17.1,20.8],[-14.7,21.5],[-11.4,26.9],[-8.8,27.7]]]}},{"type":"Feature","properties":{"name":"Costa Rica"},"geometry":{"type":"MultiPolygon","coordinates":[[[[-83.7,10.9],[-82.9,8],[-85.8,10.2],[-85.6,11.2],[-83.7,10.9]]]]}},{"type":"Feature","properties":{"name":"Nicaragua"},"geometry":{"type":"MultiPolygon","coordinates":[[[[-85.7,11.1],[-87.7,13],[-83.1,15],[-83.7,10.8],[-85.7,11.1]]]]}},{"type":"Feature","properties":{"name":"Republic of the Congo"},"geometry":{"type":"Polygon","coordinates":[[[18.6,3.5],[15.9,-3.9],[12,-5],[11.6,-2.3],[14.4,-1.7],[14.5,0.9],[13.3,2.2],[16.1,1.7],[16.6,3.5],[18.6,3.5]]]}},{"type":"Feature","properties":{"name":"Democratic Republic of the Congo"},"geometry":{"type":"MultiPolygon","coordinates":[[[[18.6,3.5],[19.4,5.1],[22.3,4.1],[25.5,5.4],[30.9,3.5],[31.3,2.1],[28.9,-2.5],[30.8,-8.2],[28.4,-9.3],[29.8,-13.5],[27.2,-11.6],[22.2,-11.2],[21.8,-7.3],[17.6,-8.1],[16.6,-5.9],[12.2,-5.8],[15.9,-3.9],[18.6,3.5]]]]}},{"type":"Feature","properties":{"name":"Bhutan"},"geometry":{"type":"Polygon","coordinates":[[[90.5,28.1],[92.1,26.9],[88.9,26.9],[90.5,28.1]]]}},{"type":"Feature","properties":{"name":"Ukraine"},"geometry":{"type":"MultiPolygon","coordinates":[[[[31.8,52.1],[33.8,52.4],[35.6,50.4],[40.1,49.6],[40,48.3],[35,45.7],[31.8,46.3],[32.6,46.6],[31.7,47.3],[29.7,45.2],[28.2,45.5],[30.1,46.4],[29.1,48],[22.1,48.4],[24.1,50.5],[23.6,51.6],[30.5,51.2],[31.8,52.1]]]]}},{"type":"Feature","properties":{"name":"Belarus"},"geometry":{"type":"Polygon","coordinates":[[[23.6,51.5],[23.5,53.9],[25.8,54.2],[28.1,56.2],[30.9,55.6],[32.7,53.4],[31.4,53.2],[31.8,52.1],[30.6,51.2],[23.6,51.5]]]}},{"type":"Feature","properties":{"name":"Namibia"},"geometry":{"type":"Polygon","coordinates":[[[16.5,-28.6],[11.8,-17.3],[25,-17.6],[21,-18.3],[20,-28.4],[16.5,-28.6]]]}},{"type":"Feature","properties":{"name":"South Africa"},"geometry":{"type":"MultiPolygon","coordinates":[[[[20,-24.8],[20.7,-26.9],[21.7,-26.9],[23,-25.3],[25.5,-25.7],[29,-22.2],[31.2,-22.3],[32,-25.6],[30.8,-26.8],[32.9,-27],[27.1,-33.5],[19.7,-34.8],[18.3,-34.2],[16.5,-28.6],[20,-28.4],[20,-24.8]],[[29,-28.9],[27.7,-28.9],[27.4,-30.3],[29.1,-29.9],[29,-28.9]]]]}},{"type":"Feature","properties":{"name":"Oman"},"geometry":{"type":"MultiPolygon","coordinates":[[[[56.4,25],[59.8,22.2],[57.8,19],[53.1,16.6],[52,19],[55,20],[56.4,25]]]]}},{"type":"Feature","properties":{"name":"Uzbekistan"},"geometry":{"type":"MultiPolygon","coordinates":[[[[71,40.2],[69.4,40.8],[67.4,39.5],[67.8,37.2],[66.5,37.4],[58.6,42.8],[56,41.3],[56,45],[58.6,45.6],[62,43.5],[64.9,43.7],[68.5,40.6],[71,42.3],[70.2,41.5],[73.1,40.8],[71,40.2]]]]}},{"type":"Feature","properties":{"name":"Kazakhstan"},"geometry":{"type":"MultiPolygon","coordinates":[[[[87.3,49.1],[85.5,47.1],[83,47.2],[82.5,45.1],[79.9,44.9],[80.2,42.2],[74.2,43.3],[71.2,42.7],[68.5,40.6],[64.9,43.7],[62,43.5],[58.6,45.6],[56,45],[56,41.3],[54.1,42.3],[52.4,41.7],[52.7,42.7],[50.2,44.6],[53.3,45.3],[53.1,46.9],[49.2,46.3],[46.5,48.4],[47.3,50.3],[48.8,49.9],[50.8,51.8],[54.5,50.5],[61.4,50.8],[60,52],[62.1,53],[61,53.9],[68.9,55.4],[73.4,53.4],[76.9,54.5],[80,50.8],[83.4,51],[87.3,49.1]]]]}},{"type":"Feature","properties":{"name":"Tajikistan"},"geometry":{"type":"MultiPolygon","coordinates":[[[[71,40.2],[69.3,39.5],[73.6,39.5],[75.2,37.4],[71.7,36.7],[71,38.5],[67.8,37.1],[67.5,39.5],[70.4,41],[71,40.2]]]]}},{"type":"Feature","properties":{"name":"Lithuania"},"geometry":{"type":"MultiPolygon","coordinates":[[[[26.6,55.7],[25.8,54.2],[23.6,53.9],[21.1,56.1],[26.6,55.7]]]]}},{"type":"Feature","properties":{"name":"Brazil"},"geometry":{"type":"MultiPolygon","coordinates":[[[[-57.6,-30.2],[-53.7,-26.3],[-55.9,-22.3],[-58,-22.1],[-57.5,-18.2],[-58.3,-16.3],[-60.2,-16.3],[-60.5,-13.8],[-65,-12],[-65.4,-9.7],[-70.6,-11],[-70.5,-9.4],[-72.2,-10],[-74,-7.5],[-72.9,-5.1],[-70,-4.3],[-69.9,1.7],[-67.4,2.1],[-65.5,0.7],[-63.4,2.3],[-64.8,4.3],[-62.9,3.6],[-60.2,5.3],[-58.8,1.2],[-56,2.5],[-53,2.2],[-51.5,4.4],[-49.9,1.2],[-52.7,-1.6],[-50.8,-0.9],[-49.7,-2.7],[-46.8,-0.7],[-44.6,-1.7],[-44.8,-3.3],[-43.4,-2.3],[-40,-2.8],[-35.5,-5.1],[-34.8,-7.2],[-35.3,-9.2],[-38.9,-12.7],[-39.1,-17.7],[-41,-22],[-48.7,-25.4],[-48.8,-28.5],[-52.1,-32.2],[-50.6,-30.5],[-51.3,-30],[-53.4,-33.7],[-53.8,-32.1],[-57.6,-30.2]]],[[[-48.5,-0.6],[-50.8,-1.4],[-50.4,-0.1],[-48.5,-0.6]]]]}},{"type":"Feature","properties":{"name":"Uruguay"},"geometry":{"type":"Polygon","coordinates":[[[-57.6,-30.2],[-53.1,-32.7],[-53.8,-34.4],[-58.2,-34.1],[-57.6,-30.2]]]}},{"type":"Feature","properties":{"name":"Mongolia"},"geometry":{"type":"Polygon","coordinates":[[[116.7,49.8],[115.6,47.9],[118.5,48],[119.9,46.7],[112,45.1],[111.9,43.7],[110.4,42.8],[105,41.6],[96.4,42.7],[95.4,44.3],[90.9,45.2],[90.3,47.7],[87.7,48.9],[92.4,50.9],[97.3,49.7],[98.9,52.1],[108.5,49.3],[116.7,49.8]]]}},{"type":"Feature","properties":{"name":"Russia"},"geometry":{"type":"MultiPolygon","coordinates":[[[[87.8,49.2],[83.4,51],[80,50.8],[76.9,54.5],[73.4,53.4],[68.9,55.4],[61,53.9],[62.1,53],[60,52],[61.4,50.8],[54.5,50.5],[50.8,51.8],[48.8,49.9],[47.5,50.4],[46.5,48.4],[49.3,46.3],[46.7,44.5],[48.6,41.8],[47.9,41.2],[40,43.4],[36.6,45.2],[38.6,46],[37.7,46.7],[39.4,47.1],[38.2,47.3],[39.8,47.8],[40.1,49.6],[35.6,50.4],[33.8,52.4],[31.8,52.1],[31.2,53],[32.7,53.4],[30.9,55.6],[27.6,56.8],[28,59.8],[30.2,60],[27.8,60.5],[31.6,62.9],[30,63.7],[29.1,66.9],[30,67.7],[28.4,68.9],[32.1,70],[41,67.7],[41.2,66.8],[38.6,66.1],[31.9,67.2],[34.9,65.9],[34.7,64.6],[37.5,63.8],[36.4,64.9],[40.5,64.5],[39.7,65.6],[42.2,66.5],[44.2,65.9],[44.4,68.1],[43.3,68.7],[46.5,68.1],[44.9,67.4],[46.4,66.7],[53.9,69],[53.2,68.3],[59.7,68.3],[60.9,69.9],[68.3,68.2],[69.2,69],[66.8,69.6],[66.6,71.1],[69.4,73],[71.6,72.9],[72.8,72.7],[71.8,71.5],[73.6,68.5],[71.6,66.7],[69,66.8],[72.1,66.2],[74.7,67.7],[74.6,68.8],[79.1,67.6],[77.5,67.8],[77.6,68.9],[73.8,69.2],[74.3,70.7],[73,71.4],[74.8,72.8],[75.7,72.6],[75.3,71.4],[76.9,71.1],[79.1,71],[76,71.9],[83.3,71.7],[82.1,70.6],[83.1,70.1],[83.6,71.6],[80.7,72.5],[80.5,73.6],[87.1,73.9],[85.8,73.5],[86.8,73],[85.8,73.4],[87.7,73.9],[85.7,74.6],[87.8,75],[87,75.2],[99.6,75.8],[98.8,76.5],[102.2,76.4],[100.9,76.9],[104.3,77.7],[107.5,76.9],[106.4,76.5],[113.9,75.9],[105.1,72.8],[110.9,73.7],[110,74],[112.8,74],[114.1,72.6],[113.5,73.5],[122.7,72.8],[124.4,73.8],[129.4,73],[127.9,72.7],[129.5,72.1],[127.7,72.4],[131,70.7],[132.7,71.9],[140,71.5],[139.1,72.2],[140.7,72.9],[146.9,72.3],[144.9,71.7],[149.6,72.1],[148.8,71.7],[152.5,70.8],[159.2,70.8],[160.8,68.5],[164,69.8],[170.6,68.7],[170.5,70.1],[180,69],[180,65.1],[174.4,64.7],[177.5,64.8],[179.6,62.6],[177,62.9],[170.3,59.9],[163.6,60],[162,58.1],[163.3,57.7],[163.4,56.2],[162.4,56.4],[162.1,54.8],[156.7,50.9],[155.6,55.3],[156.7,57.7],[165.7,62.5],[163.4,62.6],[160.2,60.6],[160.3,61.9],[157,61.7],[154.2,59.9],[155.2,59.2],[149.4,59.8],[140.9,58.4],[135.2,54.8],[141.4,53.3],[140.2,48.5],[133.2,42.7],[130.4,42.7],[130.9,44.8],[133.1,45.1],[134.7,48.3],[131,47.7],[130.7,48.9],[127.5,49.8],[126.1,52.8],[123.6,53.6],[120,52.8],[120.7,52],[117.9,49.5],[114.3,50.3],[108.5,49.3],[98.9,52.1],[97.3,49.7],[92.4,50.9],[87.8,49.2]]],[[[22.8,54.4],[19.6,54.5],[21.4,55.3],[22.8,54.4]]],[[[33.6,46.1],[36.6,45.4],[33.7,44.4],[32.5,45.4],[33.6,46.1]]],[[[-180,65.1],[-180,69],[-175.3,67.7],[-174.5,66.3],[-173.6,67.1],[-169.6,66.1],[-172.9,65.7],[-172.1,65.1],[-173.1,64.2],[-178.5,65.5],[-178.5,66.4],[-180,65.1]]],[[[142.5,54.3],[144.8,48.6],[143.3,49.4],[142.5,47.8],[143.6,46.4],[142.1,45.9],[141.6,52.3],[142.5,54.3]]],[[[51.4,71.8],[53.3,73.2],[56.4,73.2],[55.2,71.9],[57.6,70.7],[51.4,71.8]]],[[[57,74.7],[55.7,75.1],[69,76.7],[58.2,74.6],[56.7,73.2],[53.6,73.8],[57,74.7]]],[[[145.4,75.5],[139.1,74.7],[136.9,75.4],[139,76.2],[145.4,75.5]]],[[[105.4,78.6],[99.3,78],[102.3,79.4],[105.4,78.6]]],[[[99.9,79],[92.9,79.6],[97.6,80.2],[100,79.8],[99,79.3],[99.9,79]]],[[[46.7,80.5],[44.9,80.6],[48.8,80.7],[46.7,80.5]]],[[[57.3,80.9],[56.1,81.1],[58.3,80.9],[57.3,80.9]]]]}},{"type":"Feature","properties":{"name":"Czechia"},"geometry":{"type":"Polygon","coordinates":[[[14.8,50.9],[18.8,49.5],[14.3,48.6],[12.1,50.2],[14.8,50.9]]]}},{"type":"Feature","properties":{"name":"Germany"},"geometry":{"type":"MultiPolygon","coordinates":[[[[13.8,48.8],[13,47.5],[7.6,47.6],[8.2,49],[6.3,49.5],[5.9,51.8],[7.2,53.7],[9.8,53.5],[8.7,54.9],[13.7,54.2],[15,51.1],[12.1,50.3],[13.8,48.8]]]]}},{"type":"Feature","properties":{"name":"Estonia"},"geometry":{"type":"MultiPolygon","coordinates":[[[[24.3,57.9],[23.5,59.2],[28.2,59.4],[27.4,57.5],[24.3,57.9]]]]}},{"type":"Feature","properties":{"name":"Latvia"},"geometry":{"type":"Polygon","coordinates":[[[27.4,57.5],[27.6,55.8],[21,56.2],[22.5,57.7],[27.4,57.5]]]}},{"type":"Feature","properties":{"name":"Norway"},"geometry":{"type":"MultiPolygon","coordinates":[[[[20.6,69],[16.8,67.9],[14.5,66.1],[14.1,64.2],[12.2,63.6],[12.9,61.3],[11.7,58.9],[10.7,59.9],[8.1,58.1],[5.5,58.8],[7.1,60.5],[5.7,60],[5,61],[7.7,61.2],[5.2,61.1],[6.8,61.9],[5.1,62.2],[10.9,63.5],[11.5,64],[9.5,63.8],[18.2,69.5],[24.7,71],[25.9,70.9],[25,70.1],[27.7,71.1],[28.5,71],[28,70.1],[31.1,70.3],[28.6,70.2],[30.9,69.7],[29.1,69],[27.9,70.1],[24.9,68.6],[20.6,69]]],[[[21,78.2],[20.2,78.5],[22.3,78.3],[21,78.2]]],[[[20.2,78.6],[16.3,76.6],[13.9,77.5],[17,77.9],[13.6,78.1],[17.3,78.4],[13,78.2],[10.7,79.5],[16.4,78.9],[16.3,80.1],[21.5,78.8],[20.2,78.6]]],[[[27.2,80.1],[24.1,79.2],[17.8,80.1],[27.2,80.1]]]]}},{"type":"Feature","properties":{"name":"Sweden"},"geometry":{"type":"MultiPolygon","coordinates":[[[[20.6,69],[23.7,68],[24.2,65.8],[21.8,65.7],[20.7,63.8],[17.7,63],[17.2,60.7],[19.1,59.7],[16.2,58.6],[16.9,58.5],[15.9,56.1],[12.8,55.4],[11.1,59],[12.9,61.3],[12,63.3],[14.1,64.2],[16.2,67.5],[20.6,69]]]]}},{"type":"Feature","properties":{"name":"Finland"},"geometry":{"type":"MultiPolygon","coordinates":[[[[29,69],[30,67.7],[29.1,66.9],[30,63.7],[31.2,62.5],[27.7,60.5],[21.4,60.6],[21.5,63.2],[25.4,65],[23.7,66.3],[23.7,68],[20.6,69],[24.9,68.6],[27.9,70.1],[29,69]]]]}},{"type":"Feature","properties":{"name":"Vietnam"},"geometry":{"type":"MultiPolygon","coordinates":[[[[107.5,14.7],[102.4,22.8],[105.3,23.4],[108,21.5],[105.6,19],[109,15.3],[109.5,12.9],[109,11.3],[104.7,8.6],[104.5,10.4],[107.5,12.3],[107.5,14.7]]]]}},{"type":"Feature","properties":{"name":"Cambodia"},"geometry":{"type":"MultiPolygon","coordinates":[[[[107.5,14.7],[107.5,12.4],[105.8,11.6],[106.2,10.8],[103.1,10.9],[102.9,14.2],[107.5,14.7]]]]}},{"type":"Feature","properties":{"name":"United Arab Emirates"},"geometry":{"type":"MultiPolygon","coordinates":[[[[56.3,25.6],[55.1,22.6],[51.6,24.1],[56.3,25.6]]]]}},{"type":"Feature","properties":{"name":"Belgium"},"geometry":{"type":"Polygon","coordinates":[[[2.5,51.1],[5,51.5],[6.4,50.3],[5.5,49.5],[2.5,51.1]]]}},{"type":"Feature","properties":{"name":"Georgia"},"geometry":{"type":"Polygon","coordinates":[[[41.6,42.4],[40.1,43.5],[45.2,42.7],[46.7,41.3],[41.8,41.4],[41.6,42.4]]]}},{"type":"Feature","properties":{"name":"North Macedonia"},"geometry":{"type":"Polygon","coordinates":[[[20.6,41.9],[23,41.7],[21,40.8],[20.6,41.9]]]}},{"type":"Feature","properties":{"name":"Albania"},"geometry":{"type":"Polygon","coordinates":[[[20.6,41.9],[20.2,39.6],[19.3,42.2],[20.6,41.9]]]}},{"type":"Feature","properties":{"name":"Azerbaijan"},"geometry":{"type":"MultiPolygon","coordinates":[[[[45,41.3],[48.6,41.8],[50.4,40.2],[48.6,38.4],[48,39.7],[46.5,38.9],[45,41.3]]]]}},{"type":"Feature","properties":{"name":"Turkey"},"geometry":{"type":"MultiPolygon","coordinates":[[[[43.4,41.1],[44.8,39.6],[44,39.4],[44.8,37.1],[36.6,36.8],[36.1,35.8],[36,36.9],[32.8,36],[27.4,36.7],[28.3,37],[27.3,37],[26.2,38.3],[26.9,39.6],[26.1,39.5],[33.3,42],[43.4,41.1]]],[[[28,42],[29,41],[26.2,40.1],[26.3,41.8],[28,42]]]]}},{"type":"Feature","properties":{"name":"Spain"},"geometry":{"type":"MultiPolygon","coordinates":[[[[-1.8,43.4],[3.2,41.9],[0.7,40.8],[0.2,38.7],[-2.1,36.7],[-5.6,36],[-7.4,37.2],[-7.6,39.7],[-6.2,41.6],[-8.9,41.9],[-9.2,43.2],[-1.8,43.4]]]]}},{"type":"Feature","properties":{"name":"Laos"},"geometry":{"type":"Polygon","coordinates":[[[102.1,22.4],[104.6,20.6],[103.8,19.3],[107.4,16.1],[107.4,14.5],[105.3,14.2],[105.6,15.7],[104,18.3],[100.9,17.6],[101.3,19.5],[100.1,20.4],[102.1,22.4]]]}},{"type":"Feature","properties":{"name":"Kyrgyzstan"},"geometry":{"type":"Polygon","coordinates":[[[80.2,42.2],[73.8,39.5],[69.2,39.8],[73.1,40.8],[70.2,41.5],[71.4,42.8],[80.2,42.2]]]}},{"type":"Feature","properties":{"name":"Armenia"},"geometry":{"type":"MultiPolygon","coordinates":[[[[45,41.3],[46.5,38.9],[43.7,40.1],[43.4,41.1],[45,41.3]]]]}},{"type":"Feature","properties":{"name":"Denmark"},"geometry":{"type":"MultiPolygon","coordinates":[[[[8.7,54.9],[8.2,56.7],[9.9,57.1],[8.2,56.8],[10.6,57.7],[9.8,56.6],[10.9,56.3],[8.7,54.9]]],[[[12,54.9],[10.9,55.7],[12.6,56],[12,54.9]]]]}},{"type":"Feature","properties":{"name":"Libya"},"geometry":{"type":"Polygon","coordinates":[[[11.5,33.2],[19.1,30.3],[21.6,32.9],[25,31.9],[25,20],[24,19.5],[16,23.4],[14.2,22.6],[10.3,24.6],[9.3,30.1],[11.5,33.2]]]}},{"type":"Feature","properties":{"name":"Tunisia"},"geometry":{"type":"MultiPolygon","coordinates":[[[[11.5,33.2],[9.5,30.2],[7.5,33.9],[8.6,36.9],[11.1,37.1],[10,34.2],[11.5,33.2]]]]}},{"type":"Feature","properties":{"name":"Romania"},"geometry":{"type":"Polygon","coordinates":[[[22.9,47.9],[26.9,48.2],[28.1,45.6],[29.6,44.9],[28.6,43.7],[22.9,43.8],[20.2,46.1],[22.9,47.9]]]}},{"type":"Feature","properties":{"name":"Hungary"},"geometry":{"type":"Polygon","coordinates":[[[22.9,47.9],[18.4,45.7],[16.1,46.9],[17.2,48],[22.9,47.9]]]}},{"type":"Feature","properties":{"name":"Slovakia"},"geometry":{"type":"Polygon","coordinates":[[[22.5,49.1],[18.7,47.8],[16.8,48.4],[19.4,49.6],[22.5,49.1]]]}},{"type":"Feature","properties":{"name":"Poland"},"geometry":{"type":"Polygon","coordinates":[[[18.8,49.5],[14.8,50.9],[14.2,53.9],[18.2,54.8],[23.4,54.2],[24.1,50.5],[22.9,49],[18.8,49.5]]]}},{"type":"Feature","properties":{"name":"Ireland"},"geometry":{"type":"MultiPolygon","coordinates":[[[[-7.2,55.1],[-8.2,54.5],[-6.1,54],[-6.3,52.2],[-10.2,51.6],[-8.8,52.7],[-9.9,52.6],[-8.9,53.2],[-10.1,54.2],[-7.2,55.1]]]]}},{"type":"Feature","properties":{"name":"United Kingdom"},"geometry":{"type":"MultiPolygon","coordinates":[[[[-7.2,55.1],[-5.4,54.5],[-8.2,54.5],[-7.2,55.1]]],[[[-2.7,51.6],[-5.3,51.9],[-2.7,53.4],[-3,55],[-5.2,54.9],[-4.8,56.2],[-5.8,55.3],[-5,56.7],[-6.2,56.7],[-5,58.6],[-3,58.6],[-4.2,57.5],[-1.8,57.6],[-3.8,56.1],[1.7,52.6],[0.4,51.5],[1,50.9],[-5.7,50.1],[-2.7,51.6]]]]}},{"type":"Feature","properties":{"name":"Greece"},"geometry":{"type":"MultiPolygon","coordinates":[[[[21,40.8],[26.6,41.4],[23.7,40.8],[24,40],[22.6,40.5],[23.3,39.2],[22.5,38.9],[24.1,38.2],[22.7,37.6],[23.2,36.4],[21.1,37.9],[23.2,38.2],[21.2,38.3],[20,39.7],[21,40.8]]]]}},{"type":"Feature","properties":{"name":"Zambia"},"geometry":{"type":"Polygon","coordinates":[[[32.9,-9.4],[33.2,-14],[30.2,-15],[26.7,-18.1],[22.1,-16.5],[22,-13],[24,-13],[24,-10.9],[29.8,-13.5],[29.8,-12.2],[28.4,-11.5],[28.9,-8.5],[32.9,-9.4]]]}},{"type":"Feature","properties":{"name":"Sierra Leone"},"geometry":{"type":"MultiPolygon","coordinates":[[[[-10.3,8.5],[-11.5,6.9],[-13.3,9],[-11.2,10],[-10.3,8.5]]]]}},{"type":"Feature","properties":{"name":"Guinea"},"geometry":{"type":"Polygon","coordinates":[[[-13.3,9],[-15.1,10.9],[-13.7,12.7],[-9.3,12.5],[-7.7,8.4],[-9.1,7.2],[-11.2,10],[-13.3,9]]]}},{"type":"Feature","properties":{"name":"Liberia"},"geometry":{"type":"Polygon","coordinates":[[[-11.5,6.9],[-9.8,8.6],[-7.4,5.8],[-7.5,4.4],[-11.5,6.9]]]}},{"type":"Feature","properties":{"name":"Central African Republic"},"geometry":{"type":"Polygon","coordinates":[[[22.9,10.9],[23.5,8.7],[27.4,5.1],[22.3,4.1],[19.4,5.1],[16.2,2.2],[14.5,5.3],[15.2,7.2],[22.9,10.9]]]}},{"type":"Feature","properties":{"name":"Sudan"},"geometry":{"type":"MultiPolygon","coordinates":[[[[22.9,10.9],[21.8,12.8],[22.9,15.5],[24,15.7],[25,22],[36.9,22],[38.6,18],[37,17.1],[36.1,12.7],[34.1,9.5],[33.2,12.2],[31.2,9.8],[26.6,9.5],[25.8,10.4],[24.1,8.7],[22.9,10.9]]]]}},{"type":"Feature","properties":{"name":"Djibouti"},"geometry":{"type":"Polygon","coordinates":[[[43.2,11.5],[41.8,11],[42.4,12.5],[43.2,11.5]]]}},{"type":"Feature","properties":{"name":"Eritrea"},"geometry":{"type":"MultiPolygon","coordinates":[[[[43.1,12.7],[40.1,14.5],[36.5,14.3],[37,17.1],[38.6,18],[39.7,15.1],[43.1,12.7]]]]}},{"type":"Feature","properties":{"name":"Austria"},"geometry":{"type":"Polygon","coordinates":[[[16.9,48.6],[16.5,47],[14.5,46.4],[9.5,47.3],[16.9,48.6]]]}},{"type":"Feature","properties":{"name":"Iraq"},"geometry":{"type":"Polygon","coordinates":[[[44.8,37.1],[46.3,35.8],[45.4,34],[48.6,29.9],[46.5,29.1],[39.1,32.1],[38.8,33.4],[41,34.4],[42.7,37.4],[44.8,37.1]]]}},{"type":"Feature","properties":{"name":"Italy"},"geometry":{"type":"MultiPolygon","coordinates":[[[[7,45.9],[13.7,46.5],[12.4,44.3],[18.4,39.8],[17,40.5],[17.2,39],[15.7,38],[15.6,40.1],[10.1,44],[7.5,43.8],[7,45.9]]],[[[15.5,38.3],[15.1,36.7],[12.4,37.8],[15.5,38.3]]],[[[9.8,40.6],[8.6,38.9],[8.2,41],[9.8,40.6]]]]}},{"type":"Feature","properties":{"name":"Switzerland"},"geometry":{"type":"Polygon","coordinates":[[[10.5,46.9],[9,45.8],[6,46.1],[8.6,47.8],[10.5,46.9]]]}},{"type":"Feature","properties":{"name":"Iran"},"geometry":{"type":"MultiPolygon","coordinates":[[[[44.8,39.6],[46.1,38.9],[48,39.7],[49.1,37.6],[51.9,36.6],[57.2,38.3],[61.2,36.6],[60.6,33.1],[61.8,31],[60.8,29.9],[63.2,26.6],[61.4,25.1],[58.1,25.6],[56.8,27.1],[53.7,26.7],[50.1,30.2],[48.5,30],[45.4,34],[46.3,35.8],[44.2,37.9],[44.8,39.6]]]]}},{"type":"Feature","properties":{"name":"Netherlands"},"geometry":{"type":"MultiPolygon","coordinates":[[[[7.2,53.2],[6,50.7],[3.5,51.5],[4.7,53],[7.2,53.2]]]]}},{"type":"Feature","properties":{"name":"Ivory Coast"},"geometry":{"type":"MultiPolygon","coordinates":[[[[-8,10.2],[-6.3,10.7],[-2.7,9.5],[-2.8,5.2],[-7.6,4.4],[-7.4,5.8],[-8.6,6.5],[-8,10.2]]]]}},{"type":"Feature","properties":{"name":"Republic of Serbia"},"geometry":{"type":"Polygon","coordinates":[[[20.2,46.1],[22.8,44.6],[22.4,42.3],[19.2,43.5],[18.9,45.9],[20.2,46.1]]]}},{"type":"Feature","properties":{"name":"Mali"},"geometry":{"type":"Polygon","coordinates":[[[-12.3,14.8],[-11.5,15.6],[-5.5,15.5],[-6.6,25],[-4.8,25],[4.2,19.1],[3.5,15.4],[-4,13.5],[-6,10.2],[-8,10.2],[-9.1,12.5],[-11.3,12],[-12.3,14.8]]]}},{"type":"Feature","properties":{"name":"Senegal"},"geometry":{"type":"Polygon","coordinates":[[[-12.3,14.8],[-11.4,12.4],[-16.7,12.3],[-15.4,12.8],[-16.7,13.2],[-13.8,13.4],[-16.6,13.6],[-17.5,14.8],[-15,16.7],[-12.3,14.8]]]}},{"type":"Feature","properties":{"name":"Nigeria"},"geometry":{"type":"MultiPolygon","coordinates":[[[[3.6,11.7],[4.1,13.5],[5.5,13.9],[9.6,12.8],[13.6,13.7],[14.7,12.2],[11.4,6.5],[10.1,7],[8.5,4.7],[6.1,4.3],[5.3,5.9],[2.7,6.4],[3.6,11.7]]]]}},{"type":"Feature","properties":{"name":"Benin"},"geometry":{"type":"Polygon","coordinates":[[[3.6,11.7],[2.7,6.4],[1.6,6.2],[0.8,10.7],[2.5,12.3],[3.6,11.7]]]}},{"type":"Feature","properties":{"name":"Angola"},"geometry":{"type":"MultiPolygon","coordinates":[[[[24,-10.9],[24,-13],[22,-13],[22,-16.2],[23.4,-17.6],[11.8,-17.2],[13.8,-11.1],[12.3,-6.1],[16.5,-5.9],[17.6,-8.1],[21.8,-7.3],[22.2,-11.2],[24,-10.9]]]]}},{"type":"Feature","properties":{"name":"Croatia"},"geometry":{"type":"MultiPolygon","coordinates":[[[[16.5,46.5],[19.4,45.2],[15.8,45.2],[17.6,43],[13.6,45.1],[16.5,46.5]]]]}},{"type":"Feature","properties":{"name":"Slovenia"},"geometry":{"type":"Polygon","coordinates":[[[13.6,45.5],[13.7,46.5],[16.5,46.5],[13.6,45.5]]]}},{"type":"Feature","properties":{"name":"Saudi Arabia"},"geometry":{"type":"MultiPolygon","coordinates":[[[[50.8,24.7],[52.6,22.9],[55.2,22.7],[55,20],[49,18.6],[47.2,16.9],[43.4,17.5],[42.8,16.4],[34.6,28.1],[34.9,29.4],[38,30.5],[37,31.5],[40.4,31.9],[44.7,29.2],[48.5,28.5],[50.8,24.7]]]]}},{"type":"Feature","properties":{"name":"Botswana"},"geometry":{"type":"Polygon","coordinates":[[[25.3,-17.8],[29.4,-22.2],[25.5,-25.7],[23,-25.3],[20.7,-26.9],[20,-22],[21,-22],[21,-18.3],[25.3,-17.8]]]}},{"type":"Feature","properties":{"name":"Zimbabwe"},"geometry":{"type":"Polygon","coordinates":[[[25.3,-17.8],[27,-18],[30.4,-15.6],[33,-16.7],[33,-20],[31.3,-22.4],[29.4,-22.2],[25.3,-17.8]]]}},{"type":"Feature","properties":{"name":"Pakistan"},"geometry":{"type":"MultiPolygon","coordinates":[[[[76,36.4],[77,35],[73.8,34.4],[75.4,32.3],[74.7,31.1],[71.9,28],[69.5,27.1],[71.1,24.4],[67.6,23.8],[66.4,25.6],[61.7,25],[63.3,27.1],[60.8,29.9],[66.2,29.8],[66.7,31.2],[69.3,31.9],[69.9,34],[71.1,34.1],[71.6,36.5],[76,36.4]]]]}},{"type":"Feature","properties":{"name":"Bulgaria"},"geometry":{"type":"Polygon","coordinates":[[[26.3,41.7],[22.9,41.3],[22.4,44],[28.6,43.7],[28,42],[26.3,41.7]]]}},{"type":"Feature","properties":{"name":"Thailand"},"geometry":{"type":"MultiPolygon","coordinates":[[[[102.9,11.6],[100,13.3],[99.1,9.8],[102.1,6.3],[101.1,5.6],[98.2,8.5],[99.6,11.8],[98.2,15.1],[98.9,16.4],[97.4,18.6],[98,19.8],[100.3,20.4],[100.9,17.6],[103.4,18.4],[104.8,17.4],[105.5,14.6],[102.3,13.6],[102.9,11.6]]]]}},{"type":"Feature","properties":{"name":"Haiti"},"geometry":{"type":"MultiPolygon","coordinates":[[[[-71.8,19.7],[-71.8,18],[-74.5,18.4],[-72.4,18.5],[-73.4,19.8],[-71.8,19.7]]]]}},{"type":"Feature","properties":{"name":"Dominican Republic"},"geometry":{"type":"MultiPolygon","coordinates":[[[[-71.8,19.7],[-68.3,18.6],[-71.4,17.6],[-71.8,19.7]]]]}},{"type":"Feature","properties":{"name":"Chad"},"geometry":{"type":"Polygon","coordinates":[[[14.1,13.1],[13.4,14.4],[15.5,16.9],[16,20.3],[15,23],[16,23.4],[24,19.5],[24,15.7],[22.9,15.5],[21.8,12.8],[22.9,11.1],[20.4,9.1],[15.5,7.5],[13.9,9.6],[15.7,10],[14.1,13.1]]]}},{"type":"Feature","properties":{"name":"Kuwait"},"geometry":{"type":"MultiPolygon","coordinates":[[[[47.9,30],[48.4,28.5],[46.5,29.1],[47.9,30]]]]}},{"type":"Feature","properties":{"name":"Guatemala"},"geometry":{"type":"Polygon","coordinates":[[[-89.4,14.4],[-92.2,14.5],[-91.7,16.1],[-90.4,16.1],[-91,17.8],[-89.2,17.8],[-89.2,15.9],[-88.2,15.7],[-89.4,14.4]]]}},{"type":"Feature","properties":{"name":"Algeria"},"geometry":{"type":"Polygon","coordinates":[[[-4.8,25],[-8.7,27.3],[-8.7,28.7],[-1.2,32.1],[-2.2,35.1],[1.3,36.5],[8.6,36.9],[7.5,33.9],[9.8,29.1],[9.4,26.2],[12,23.5],[3.3,19],[-4.8,25]]]}},{"type":"Feature","properties":{"name":"Mozambique"},"geometry":{"type":"MultiPolygon","coordinates":[[[[32.1,-26.8],[31.3,-22.4],[33,-20],[33,-16.7],[30.4,-16],[30.2,-15],[34.3,-14.4],[35.3,-17.1],[35.9,-14.9],[34.6,-11.6],[40.5,-10.5],[40.6,-15.5],[34.6,-19.6],[35.5,-24.1],[32.1,-26.8]]]]}},{"type":"Feature","properties":{"name":"eSwatini"},"geometry":{"type":"Polygon","coordinates":[[[31.9,-26],[32,-27.3],[31.1,-27.2],[31.9,-26]]]}},{"type":"Feature","properties":{"name":"Burundi"},"geometry":{"type":"Polygon","coordinates":[[[30.6,-2.4],[29.4,-4.4],[29,-2.6],[30.6,-2.4]]]}},{"type":"Feature","properties":{"name":"Rwanda"},"geometry":{"type":"Polygon","coordinates":[[[29,-2.7],[30.5,-1.1],[30.8,-2.3],[29,-2.7]]]}},{"type":"Feature","properties":{"name":"Myanmar"},"geometry":{"type":"MultiPolygon","coordinates":[[[[92.6,22],[95.1,26.6],[97.9,28.4],[98.7,25.9],[97.5,23.9],[98.9,24.1],[99.1,22.2],[101.2,21.6],[97.4,18.6],[98.9,16.4],[98.2,15.1],[99.6,11.8],[98.5,10],[97.7,16.6],[96.9,17.5],[95.4,15.7],[94.2,16],[94.5,18.1],[92.6,22]]]]}},{"type":"Feature","properties":{"name":"Bangladesh"},"geometry":{"type":"MultiPolygon","coordinates":[[[[92.6,22],[92.3,20.7],[90.6,23.6],[90.6,22.2],[89.2,21.7],[88.4,26.6],[92.5,24.9],[91.1,23.7],[91.6,22.9],[92.3,23.7],[92.6,22]]]]}},{"type":"Feature","properties":{"name":"Afghanistan"},"geometry":{"type":"Polygon","coordinates":[[[74.5,37],[71.2,36.1],[71.1,34.1],[69.9,34],[69.3,31.9],[66.7,31.2],[66.2,29.8],[60.8,29.9],[61.8,31],[60.6,33.1],[61.3,35.6],[62.7,35.2],[65.8,37.6],[69.3,37.1],[71,38.5],[71.7,36.7],[74.5,37]]]}},{"type":"Feature","properties":{"name":"Montenegro"},"geometry":{"type":"Polygon","coordinates":[[[18.5,42.4],[19,43.5],[20.4,42.9],[19.4,41.9],[18.5,42.4]]]}},{"type":"Feature","properties":{"name":"Bosnia and Herzegovina"},"geometry":{"type":"Polygon","coordinates":[[[17.7,42.9],[15.8,45.2],[19.4,44.9],[19.5,43.6],[17.7,42.9]]]}},{"type":"Feature","properties":{"name":"Uganda"},"geometry":{"type":"Polygon","coordinates":[[[30.5,-1.1],[29.6,-1.4],[30.9,3.7],[34,4.2],[35,1.9],[33.9,-1],[30.5,-1.1]]]}},{"type":"Feature","properties":{"name":"Cuba"},"geometry":{"type":"MultiPolygon","coordinates":[[[[-75.1,19.9],[-77.7,19.8],[-77.2,20.6],[-81.9,22.7],[-84.9,21.9],[-80.6,23.2],[-74.1,20.2],[-75.1,19.9]]]]}},{"type":"Feature","properties":{"name":"Honduras"},"geometry":{"type":"MultiPolygon","coordinates":[[[[-89.4,14.4],[-87.6,15.9],[-83.1,15],[-87,13],[-89.4,14.4]]]]}},{"type":"Feature","properties":{"name":"Ecuador"},"geometry":{"type":"MultiPolygon","coordinates":[[[[-78.8,1.4],[-75.2,-1],[-79.1,-5],[-80.5,-4.4],[-79.8,-2],[-81,-2.2],[-78.8,1.4]]]]}},{"type":"Feature","properties":{"name":"Colombia"},"geometry":{"type":"MultiPolygon","coordinates":[[[[-78.8,1.4],[-77,3.9],[-77.4,8.6],[-76.8,7.9],[-75.3,10.8],[-71.3,12.3],[-73.4,9.2],[-72,7],[-67.4,6.2],[-67.9,2.8],[-66.9,1.3],[-69.9,1.7],[-70,-4.2],[-70.1,-2.6],[-72.9,-2.4],[-74.8,-0.2],[-78.8,1.4]]]]}},{"type":"Feature","properties":{"name":"Paraguay"},"geometry":{"type":"Polygon","coordinates":[[[-62.7,-22.2],[-61.8,-19.6],[-59.1,-19.3],[-58,-22.1],[-55.9,-22.3],[-55.4,-24],[-54.2,-24.1],[-54.8,-26.6],[-58.6,-27.3],[-57.8,-25.2],[-62.7,-22.2]]]}},{"type":"Feature","properties":{"name":"Portugal"},"geometry":{"type":"MultiPolygon","coordinates":[[[[-7.1,38.8],[-7.4,37.2],[-9,37],[-8.6,42.1],[-6.2,41.6],[-7.1,38.8]]]]}},{"type":"Feature","properties":{"name":"Moldova"},"geometry":{"type":"Polygon","coordinates":[[[26.6,48.3],[29.1,48],[30.1,46.4],[28.2,45.5],[26.6,48.3]]]}},{"type":"Feature","properties":{"name":"Turkmenistan"},"geometry":{"type":"MultiPolygon","coordinates":[[[[61.3,35.6],[61.2,36.6],[57.2,38.3],[53.9,37.3],[52.7,40.5],[54.8,41],[53.8,42.1],[52.9,41.1],[52.4,41.7],[54.1,42.3],[57,41.3],[58.6,42.8],[66.6,37.9],[62.7,35.2],[61.3,35.6]]]]}},{"type":"Feature","properties":{"name":"Jordan"},"geometry":{"type":"Polygon","coordinates":[[[35.6,32.7],[38.8,33.4],[39.3,32.2],[37,31.5],[38,30.5],[36,29.2],[34.9,29.4],[35.6,32.7]]]}},{"type":"Feature","properties":{"name":"Nepal"},"geometry":{"type":"Polygon","coordinates":[[[88.1,27.9],[88,26.4],[86.7,26.4],[80,28.9],[81.6,30.4],[86,27.9],[88.1,27.9]]]}},{"type":"Feature","properties":{"name":"Lesotho"},"geometry":{"type":"Polygon","coordinates":[[[29,-28.9],[29.1,-29.9],[27.4,-30.3],[27.7,-28.9],[29,-28.9]]]}},{"type":"Feature","properties":{"name":"Cameroon"},"geometry":{"type":"Polygon","coordinates":[[[11.3,2.2],[9.8,2.3],[8.8,5.8],[11.9,7.1],[14.6,11.5],[14.4,13.1],[15.7,10],[13.9,9.7],[15.6,7.8],[14.4,6],[16.2,1.7],[11.3,2.2]]]}},{"type":"Feature","properties":{"name":"Gabon"},"geometry":{"type":"MultiPolygon","coordinates":[[[[13.3,2.2],[14.5,0.9],[14.4,-1.9],[11.6,-2.3],[11.1,-3.9],[8.7,-0.6],[10,0.2],[9.6,1],[11.3,1],[11.4,2.3],[13.3,2.2]]]]}},{"type":"Feature","properties":{"name":"Niger"},"geometry":{"type":"Polygon","coordinates":[[[3.6,11.7],[0.2,14.5],[3.8,15.7],[4.2,19.1],[12,23.5],[15,23],[16,20.3],[15.5,16.9],[13.6,13.7],[9.6,12.8],[4.8,13.8],[3.6,11.7]]]}},{"type":"Feature","properties":{"name":"Burkina Faso"},"geometry":{"type":"Polygon","coordinates":[[[2.4,11.9],[-2.8,11],[-2.8,9.4],[-5.5,10.4],[-4.3,13.2],[-0.7,15.1],[2.4,11.9]]]}},{"type":"Feature","properties":{"name":"Togo"},"geometry":{"type":"Polygon","coordinates":[[[-0.2,11.1],[1.3,10],[1.6,6.2],[0.5,6.8],[-0.2,11.1]]]}},{"type":"Feature","properties":{"name":"Ghana"},"geometry":{"type":"Polygon","coordinates":[[[-0.2,11.1],[1.2,6.1],[-3.1,5.1],[-2.8,11],[-0.2,11.1]]]}},{"type":"Feature","properties":{"name":"Guinea-Bissau"},"geometry":{"type":"MultiPolygon","coordinates":[[[[-13.7,12.7],[-15.1,10.9],[-15,12],[-16.7,12.3],[-13.7,12.7]]]]}},{"type":"Feature","properties":{"name":"United States of America"},"geometry":{"type":"MultiPolygon","coordinates":[[[[-122.8,49],[-95.2,49.4],[-88.4,48.3],[-82.5,45.3],[-82.7,41.7],[-74.9,45],[-70.9,45.2],[-69.2,47.5],[-67.8,47.1],[-67,44.8],[-70.3,43.7],[-71,42.3],[-69.9,41.7],[-74,41.3],[-74.4,39.4],[-75.6,39.6],[-75.9,37.1],[-75.8,39.6],[-76.3,38],[-77.1,38.9],[-76.3,37],[-77.3,37.3],[-75.5,35.8],[-76.7,36.3],[-75.7,35.8],[-77.1,35.5],[-76.3,34.9],[-81.5,31.4],[-80.4,25.2],[-83.7,29.9],[-88,30.7],[-90.4,30.2],[-89.4,28.9],[-95.1,29.7],[-97.8,27.5],[-97.4,25.8],[-99.1,26.4],[-101.4,29.8],[-103.4,29],[-106.4,31.7],[-111.1,31.3],[-117.1,32.5],[-120.6,34.6],[-122.5,37.5],[-121.4,38],[-123,38],[-124.4,40.4],[-124,46.2],[-123.2,46.2],[-124.7,48.4],[-122.8,48.1],[-122.7,47.1],[-122.8,49]]],[[[-141,69.7],[-141,60.3],[-137.5,58.9],[-135.3,59.7],[-130.1,56.1],[-130.4,54.9],[-135.3,59.5],[-135.1,58.2],[-137.1,59.1],[-136.7,58.2],[-139.5,60.1],[-147.7,61.3],[-148.4,60],[-152,59.3],[-151.4,60.7],[-149,60.9],[-149.4,61.5],[-153.1,60.3],[-154.3,59.1],[-153.3,58.9],[-158.4,56],[-163.3,54.8],[-157.4,57.5],[-156.8,59.2],[-162.2,58.6],[-161.9,60.7],[-164.1,59.8],[-165.4,60.6],[-163.6,60.9],[-166.2,61.6],[-164.4,63.2],[-161.1,63.6],[-160.8,64.7],[-166.2,64.6],[-168.1,65.7],[-161,66.2],[-162.5,67],[-160.2,66.4],[-166.8,68.4],[-156.5,71.4],[-141,69.7]]],[[[-135.8,57.4],[-136.4,58.2],[-134.9,58],[-135.8,57.4]]],[[[-154.9,19.6],[-155.9,19],[-155.9,20.3],[-154.9,19.6]]]]}},{"type":"Feature","properties":{"name":"Canada"},"geometry":{"type":"MultiPolygon","coordinates":[[[[-95.2,49.4],[-123.1,49],[-124.8,50.9],[-127.8,51.2],[-126.6,51.7],[-127.9,51.7],[-126.7,52],[-127,52.8],[-128.4,52.3],[-128.6,54],[-129.3,53.4],[-130.5,54.4],[-129.5,55.5],[-130.1,55],[-130.1,56.1],[-135,59.6],[-137.5,58.9],[-141,60.3],[-141,69.7],[-135.1,68.7],[-136,69.2],[-129.4,70.1],[-132.9,68.7],[-128,70.6],[-125.4,69.3],[-124.4,70.2],[-124.4,69.4],[-113.9,68.4],[-115.1,67.8],[-110.1,68],[-107.2,66.3],[-107.9,68.1],[-105.6,68.6],[-108.8,68.3],[-106.2,68.9],[-102.2,67.7],[-95.9,68.3],[-95.6,66.7],[-95.5,68.1],[-93.4,68.6],[-96.5,70.1],[-95.2,71.9],[-91.5,70.2],[-92.9,69.7],[-90.3,69.5],[-91.4,69.4],[-90.3,68.2],[-88,68.8],[-87.5,67.1],[-84.5,69],[-85.6,69.9],[-82.3,69.6],[-83.3,69.5],[-81.3,69.1],[-82.7,68.4],[-81.5,67],[-84.9,67.1],[-83.7,66.2],[-86.8,66.5],[-85.9,66.2],[-87.4,65.3],[-91.5,65.9],[-86.9,65.1],[-90.2,63.6],[-93.8,64.2],[-90.6,63.1],[-93.3,62.4],[-94.8,60.5],[-94.4,58.2],[-93.2,58.8],[-92.9,56.9],[-88.9,56.9],[-85.4,55],[-82.3,55.2],[-81.9,52.2],[-79.3,50.7],[-78.4,52.2],[-79.8,54.7],[-76.5,56.4],[-78.6,58.6],[-77.2,60.1],[-78.2,62.3],[-73.7,62.5],[-69.4,60.9],[-71,60.1],[-69.6,59.9],[-70.3,58.8],[-68.2,58.5],[-69.4,57.8],[-66.1,58.3],[-64.4,60.2],[-60.7,55],[-57.4,54.6],[-60.9,53.7],[-57.5,54.2],[-55.6,52.2],[-60.1,50.2],[-66.5,50.3],[-69.7,48.1],[-71.1,48.4],[-69.7,48.1],[-76.8,43.6],[-82.5,41.7],[-82.5,45.3],[-84.1,46.5],[-95.2,49.4]]],[[[-67.2,45.2],[-67.8,47.1],[-69.2,47.5],[-70.9,45.2],[-74.7,45],[-65.6,49.3],[-64.2,48.5],[-66.8,48],[-61,45.3],[-65.5,43.5],[-66.2,44.4],[-63.4,45.4],[-64.9,45.3],[-64.7,46.1],[-67.2,45.2]]],[[[-52.6,47.5],[-53.6,46.6],[-54.1,47.9],[-55.7,46.9],[-54.7,47.7],[-59.4,47.9],[-55.9,51.6],[-56.9,49.5],[-53.5,49.3],[-53.9,47.9],[-52.6,47.5]]],[[[-132.6,53.2],[-133.1,54.2],[-131.7,54.2],[-132.6,53.2]]],[[[-95.2,68.9],[-99.6,69],[-97.9,69.9],[-95.2,68.9]]],[[[-100.9,69.8],[-103.5,69.7],[-101.8,69.2],[-103,68.8],[-106.6,69.5],[-113.2,68.5],[-117.4,70],[-111.5,70.3],[-117.6,70.6],[-118.4,71],[-115.1,71.5],[-119.1,71.8],[-114.6,73.4],[-111.8,72.2],[-109.6,72.9],[-107.7,71.6],[-108.3,73.1],[-106.9,73.3],[-104.6,71.1],[-100.9,69.8]]],[[[-72.9,66.7],[-72.2,67.3],[-73,68.2],[-76.6,68.7],[-75.6,69.2],[-78.8,70.6],[-79.6,70.4],[-78.8,69.9],[-85.8,70],[-88.9,70.5],[-89.6,71.1],[-87,71],[-90.1,71.9],[-88.7,73.4],[-85.1,73.8],[-86.7,72.7],[-84.8,71.3],[-86.8,71],[-84.8,70.9],[-86.1,72],[-84.2,72],[-85.7,72.9],[-84,72.8],[-85.5,73.1],[-81.5,73.7],[-80.2,72.7],[-81,71.9],[-75.2,72.5],[-76.4,71.9],[-70.6,71.1],[-71.5,70],[-68.4,70.6],[-70.5,69.8],[-67.8,70.3],[-67.1,69.7],[-70,69.5],[-66.8,69.3],[-69.4,68.9],[-61.3,66.6],[-63.5,65.9],[-63.5,64.9],[-65.5,65.8],[-64.4,66.4],[-68.8,66.2],[-64.7,64],[-65.2,62.6],[-69,63.8],[-66.1,61.9],[-71.4,63.1],[-73.3,64.7],[-78.3,64.7],[-77.4,65.5],[-75.3,64.7],[-75.9,65.3],[-73.5,65.5],[-74.5,66.1],[-72.9,66.7]]],[[[-115.3,73.5],[-122.8,71.1],[-125.9,72],[-123.8,73.8],[-124.8,74.3],[-115.3,73.5]]],[[[-123.3,48.5],[-128.4,50.8],[-125.5,50.3],[-123.3,48.5]]],[[[-80.2,63.8],[-87.2,63.7],[-85.5,65.9],[-80.2,63.8]]],[[[-96.3,72.5],[-98.7,71.3],[-102.8,72.8],[-97.8,73.9],[-96.9,73.7],[-98.4,72.9],[-96.3,72.5]]],[[[-90.3,73.9],[-94.3,72.8],[-94.1,72],[-95.7,73],[-94.7,74.1],[-90.3,73.9]]],[[[-97.4,75.5],[-102.9,75.6],[-98.5,76.7],[-97.4,75.5]]],[[[-105.4,75.7],[-112.4,74.4],[-114.4,74.7],[-110.9,75.2],[-117.7,75.3],[-114.9,76.5],[-108.9,75.5],[-110.4,76.4],[-108.8,76.9],[-108,75.8],[-105.4,75.7]]],[[[-79.6,75],[-91.5,74.6],[-93.1,76.3],[-97,76.7],[-79.6,75]]],[[[-119.3,76.2],[-123,76.1],[-115.4,77.3],[-119.3,76.2]]],[[[-96.9,77.8],[-98.4,78.8],[-94.8,78.4],[-96.9,77.8]]],[[[-96.6,80],[-94.4,80],[-96.7,80.3],[-93.3,81.4],[-84.9,79.3],[-92,78.2],[-94.3,79],[-90.4,79.2],[-96.6,80]]],[[[-61.1,82.3],[-69.3,81.7],[-66.6,81.5],[-70.2,81.2],[-64.4,81.5],[-78.1,79.4],[-74.4,79.1],[-78.9,79.1],[-74.6,78.6],[-78.7,77.3],[-81.9,77.7],[-77.7,76.8],[-81.1,76.1],[-89.7,76.6],[-86.6,77.2],[-88.2,77.9],[-82.3,78.1],[-84.8,77.5],[-85.7,77.9],[-84.6,78.6],[-87.5,78.1],[-86.9,78.7],[-81.5,79],[-84.8,79],[-83.4,79.1],[-86.5,80.3],[-80.6,79.6],[-79.8,79.7],[-83.2,80.3],[-76.7,81.4],[-85.1,80.5],[-86.7,80.6],[-82.4,81.2],[-87.7,80.6],[-89.5,80.9],[-84.7,81.3],[-92,81.7],[-75.4,82.6],[-77.1,83],[-61.1,82.3]]],[[[-60.1,45.8],[-61.6,46],[-60.4,47],[-61.1,45.7],[-60.1,45.8]]]]}},{"type":"Feature","properties":{"name":"Mexico"},"geometry":{"type":"MultiPolygon","coordinates":[[[[-97.1,26],[-97.9,22.6],[-95.9,18.7],[-91.5,18.4],[-90.3,21],[-86.8,21.4],[-87.8,18.2],[-91,17.8],[-90.4,16.1],[-91.7,16.1],[-92.2,14.5],[-94.1,16.2],[-97.8,16],[-105,19.3],[-105.8,22.6],[-109.4,25.6],[-113.1,31.2],[-115,32],[-109.5,23.6],[-110,22.9],[-115,27.7],[-114.1,28.5],[-117.1,32.5],[-111,31.3],[-106.4,31.8],[-103.4,29],[-101.4,29.8],[-99.1,26.4],[-97.1,26]]]]}},{"type":"Feature","properties":{"name":"Panama"},"geometry":{"type":"MultiPolygon","coordinates":[[[[-82.6,9.6],[-81.3,8.8],[-79,9.6],[-77.2,7.9],[-77.9,7.2],[-79.1,9.1],[-80.9,7.2],[-82.9,8],[-82.6,9.6]]]]}},{"type":"Feature","properties":{"name":"Venezuela"},"geometry":{"type":"MultiPolygon","coordinates":[[[[-60,8.6],[-61.4,5.9],[-60.6,4.9],[-62.9,3.6],[-64.8,4.3],[-63.4,2.3],[-65.5,0.6],[-67.9,2.8],[-67.4,6.2],[-72,7],[-73.4,9.2],[-71.4,11.9],[-72.1,9.8],[-71.2,9.2],[-71.6,10.8],[-70,12.2],[-68.1,10.5],[-61.8,10.7],[-63,10.1],[-60,8.6]]]]}},{"type":"Feature","properties":{"name":"Papua New Guinea"},"geometry":{"type":"MultiPolygon","coordinates":[[[[141,-2.6],[147.5,-6],[147.2,-7.5],[150.7,-10.6],[147.7,-10.1],[144.5,-7.5],[142.1,-8.2],[143.4,-8.8],[142.7,-9.3],[141,-9.1],[141,-2.6]]],[[[152.4,-4.3],[150.5,-6.3],[148.3,-5.7],[152.4,-4.3]]]]}},{"type":"Feature","properties":{"name":"Egypt"},"geometry":{"type":"MultiPolygon","coordinates":[[[[34.4,30.9],[34.3,27.7],[32.3,29.6],[36.9,22],[25,22],[25.1,31.6],[34.4,30.9]]]]}},{"type":"Feature","properties":{"name":"Yemen"},"geometry":{"type":"MultiPolygon","coordinates":[[[[52,19],[53.1,16.6],[52.2,15.6],[43.5,12.7],[42.6,15.2],[43.3,17.5],[47.2,16.9],[49,18.6],[52,19]]]]}},{"type":"Feature","properties":{"name":"Mauritania"},"geometry":{"type":"MultiPolygon","coordinates":[[[[-8.7,27.3],[-4.8,25],[-6.6,25],[-5.5,15.5],[-11.5,15.6],[-12.1,14.7],[-14.4,16.7],[-16.5,15.8],[-17,21.3],[-13,21.3],[-12,26],[-8.7,26],[-8.7,27.3]]]]}},{"type":"Feature","properties":{"name":"Equatorial Guinea"},"geometry":{"type":"MultiPolygon","coordinates":[[[[9.8,2.3],[11.3,2.2],[11.3,1],[9.4,1.1],[9.8,2.3]]]]}},{"type":"Feature","properties":{"name":"Northern Cyprus"},"geometry":{"type":"MultiPolygon","coordinates":[[[[34,35.1],[32.7,35.2],[34.6,35.7],[34,35.1]]]]}},{"type":"Feature","properties":{"name":"Antarctica"},"geometry":{"type":"MultiPolygon","coordinates":[[[[-51.7,-82.1],[-45.5,-82.5],[-38.8,-80.9],[-22.5,-79.9],[-36.4,-78.6],[-28.9,-76.4],[-18.3,-75.5],[-14.4,-73.9],[-16.5,-73.5],[-11.4,-72.4],[-10.8,-71.8],[-12.3,-71.4],[-10.1,-70.9],[-0.5,-71.8],[13,-70],[27.3,-71],[32.7,-70],[33.2,-68.7],[38.9,-70.2],[39.9,-68.8],[46.5,-67.3],[48.4,-68],[49.4,-67.2],[48.4,-67],[53.8,-65.8],[57.3,-66.6],[56,-66.6],[56.2,-67.4],[69.6,-67.8],[69.7,-69.3],[67.2,-70.3],[69.3,-70.4],[66.3,-73.1],[67.2,-73.3],[73.4,-69.8],[84.5,-67.1],[98.8,-66.9],[102.7,-65.9],[108.9,-67],[113.2,-65.8],[115.8,-66.8],[113.7,-67.5],[120.4,-67],[119,-67.4],[135.3,-66.1],[144.5,-67],[143.9,-67.9],[147.1,-68.4],[153.9,-68.3],[162.3,-71.1],[162.6,-70.3],[170.3,-71.3],[170.3,-72.6],[168.3,-72.4],[169.9,-72.7],[169.2,-73.3],[164.5,-73.3],[165.4,-74.6],[160.6,-75.4],[162.9,-75.8],[162.3,-77],[164.6,-77.9],[163.8,-78.2],[167.2,-78.7],[161.6,-78.5],[162.1,-79.1],[159.5,-79.8],[161.5,-79.9],[158.2,-80.4],[160.8,-80.4],[159.5,-80.8],[163.9,-82.2],[160.8,-82.5],[180,-84.4],[180,-90],[-180,-90],[-180,-84.4],[-156,-85.2],[-174.4,-82.8],[-157.6,-83.4],[-158.6,-83.1],[-152.5,-82.5],[-157.1,-81.3],[-147.6,-80.9],[-151,-80.4],[-147.1,-79.9],[-156.5,-78.7],[-153.8,-78.2],[-158.3,-78],[-158.2,-77.1],[-145.5,-77.5],[-149.7,-76.4],[-135.4,-74.6],[-114.2,-73.9],[-113.2,-74.4],[-114.1,-75.1],[-111.6,-74.2],[-110.1,-74.5],[-111.3,-75.2],[-98.4,-75.2],[-103,-73.6],[-98.9,-73.6],[-103,-72.7],[-89.3,-72.6],[-82.1,-73.9],[-80.5,-73],[-77.1,-73.9],[-68.8,-73.1],[-66.8,-72.1],[-68.8,-69.4],[-66.8,-69.1],[-66.5,-67.5],[-67.5,-67.1],[-57.4,-63.2],[-62.2,-65.3],[-61,-66.3],[-63.8,-66.2],[-65.6,-67.4],[-65.2,-68.6],[-62.9,-68.4],[-63.9,-69],[-60.9,-71.2],[-62.4,-71.9],[-59.9,-72.9],[-62.1,-73.1],[-61,-74.5],[-70,-76.7],[-77.7,-76.5],[-72.7,-77.6],[-74.1,-78.1],[-83.9,-78.4],[-76.1,-79.4],[-79.7,-80],[-75.6,-80.9],[-62.2,-81.6],[-66.3,-81.9],[-60.4,-82.2],[-62.8,-82.5],[-61,-83.5],[-51.7,-82.1]]],[[[-66.1,-79.6],[-65.5,-80],[-67.8,-79.6],[-66.1,-79.6]]],[[[-52.5,-80.2],[-47.2,-77.8],[-43.8,-78.2],[-45.4,-78.8],[-42.9,-79.5],[-54.4,-80.7],[-52.5,-80.2]]],[[[-20.4,-74.4],[-22,-74.1],[-20.6,-73.6],[-20.4,-74.4]]],[[[-74.8,-72.9],[-74.5,-73.6],[-76.1,-73.2],[-74.8,-72.9]]],[[[-74.9,-71],[-76.5,-71],[-73.5,-70.7],[-74.9,-71]]],[[[-71.5,-72.6],[-73.2,-72.4],[-70.1,-72.2],[-75.4,-71.7],[-69.8,-71.2],[-72.2,-69.1],[-70.4,-68.8],[-68.2,-71.8],[-71.5,-72.6]]],[[[-162.3,-82.9],[-161.6,-83],[-163.8,-82.8],[-162.3,-82.9]]],[[[-159.8,-79.3],[-159,-79.8],[-164.3,-79.3],[-159.8,-79.3]]]]}},{"type":"Feature","properties":{"name":"Australia"},"geometry":{"type":"MultiPolygon","coordinates":[[[[131.5,-31.6],[116,-34.8],[113.2,-26.2],[114.2,-26.3],[113.9,-22],[121.1,-19.5],[122.9,-16.4],[123.6,-17.6],[123.6,-16.2],[124.9,-16.4],[124.4,-15.5],[126.1,-13.9],[127.4,-13.9],[128,-15.5],[129.7,-15.2],[130.6,-12.4],[132.8,-12.1],[132,-11.1],[136.6,-11.9],[135.5,-14.9],[140.5,-17.6],[142.5,-10.7],[143.8,-14.4],[145.3,-14.9],[146.3,-19],[148.8,-20.2],[153.2,-25.9],[153.1,-31.1],[150,-37.5],[146.4,-39.1],[144.9,-37.9],[143.5,-38.9],[141.4,-38.4],[139.4,-35.4],[138.1,-35.6],[138.1,-34.1],[136.8,-35.3],[137.8,-32.5],[136,-35],[134.1,-32.5],[131.5,-31.6]]],[[[148,-43.2],[146,-43.6],[144.7,-40.7],[148.2,-40.8],[148,-43.2]]]]}},{"type":"Feature","properties":{"name":"Greenland"},"geometry":{"type":"MultiPolygon","coordinates":[[[[-40.9,65.1],[-40.4,64.4],[-41.6,64.3],[-40.5,63.7],[-43.2,62.8],[-42.2,62.4],[-43.6,61.1],[-42.7,60.7],[-44.2,60.6],[-43.1,60.1],[-45.2,60.1],[-44.5,60.6],[-45.9,60.5],[-45.7,61.3],[-48.2,60.8],[-51.7,64],[-50,64.2],[-51.8,64.2],[-50,64.9],[-52.2,64.3],[-51.2,65],[-52.6,65.3],[-50.6,65.7],[-53.5,66],[-50,67],[-53.5,66.1],[-52.2,66.8],[-54,67.1],[-49.9,67.7],[-53.7,67.5],[-50.1,67.9],[-53.4,68.3],[-50.2,69],[-51.1,69.2],[-50.2,70],[-54.6,70.7],[-50.5,70.4],[-53,71.4],[-51.7,71.7],[-53.9,72.4],[-53.9,71.5],[-55.5,71.4],[-54.4,72.2],[-55.7,72.5],[-54.3,72.5],[-58.4,75.7],[-68.4,76.1],[-69.6,76.4],[-68,76.7],[-71.4,77],[-66.1,77.5],[-73.1,78.2],[-65.8,79.1],[-63.8,80.2],[-67.5,80.3],[-60.5,81.9],[-39.8,82.4],[-46.9,83],[-43.4,82.9],[-45.4,83.2],[-30.6,83.6],[-25.6,83.3],[-35.6,82.9],[-21.3,82.6],[-32.8,81.8],[-21.1,81.9],[-23.9,80.6],[-19.7,81.7],[-11.4,81.5],[-20.8,80.6],[-15.8,80.4],[-20.2,80.1],[-18.9,79.2],[-22,77.7],[-18.5,76.7],[-22.7,76.7],[-19.3,75.7],[-22.4,75.2],[-19,74.5],[-22.5,74.3],[-20.5,73.4],[-27.7,73.1],[-25.1,73.1],[-27.4,72.8],[-21.9,71.7],[-21.5,70.5],[-28.6,72.1],[-25.4,71.3],[-29.2,70.4],[-22.2,70.1],[-29.4,68.2],[-32.5,68.6],[-32,67.9],[-34.7,66.3],[-40.9,65.1]]],[[[-52.9,69.3],[-55,69.7],[-51.8,69.6],[-52.9,69.3]]],[[[-24.5,73],[-25.7,73.2],[-22.9,73.2],[-24.5,73]]]]}},{"type":"Feature","properties":{"name":"New Zealand"},"geometry":{"type":"MultiPolygon","coordinates":[[[[172.7,-43.3],[169.7,-46.5],[166.5,-46],[172.8,-40.5],[174.3,-41.2],[172.7,-43.3]]],[[[177,-39.6],[176,-41.2],[174.6,-41.3],[175.2,-40.1],[173.8,-39.3],[174.9,-37.1],[172.7,-34.4],[174.4,-35.2],[174.7,-36.9],[178.6,-37.7],[177,-39.6]]]]}},{"type":"Feature","properties":{"name":"Madagascar"},"geometry":{"type":"MultiPolygon","coordinates":[[[[44.3,-20.4],[44.4,-16.2],[48,-14.8],[49.3,-11.9],[50.5,-15.4],[49.6,-15.5],[47,-25.1],[44,-25],[43.2,-22.3],[44.3,-20.4]]]]}},{"type":"Feature","properties":{"name":"Philippines"},"geometry":{"type":"MultiPolygon","coordinates":[[[[126.6,7.3],[125.4,5.6],[123.7,7.8],[121.9,7.1],[125.5,9.8],[126.6,7.3]]],[[[122.3,18.4],[121.4,15.3],[121.9,14],[123.9,13.8],[124.1,12.5],[122.5,14],[122.6,13.2],[120.6,13.8],[119.9,15.4],[120.6,18.5],[122.3,18.4]]],[[[123.6,10.8],[123,9],[122.4,9.8],[123.6,10.8]]],[[[119.7,10.6],[117.2,8.3],[119.5,11.4],[119.7,10.6]]],[[[123.2,11.5],[121.9,10.4],[121.9,11.9],[123.2,11.5]]]]}},{"type":"Feature","properties":{"name":"Sri Lanka"},"geometry":{"type":"MultiPolygon","coordinates":[[[[81.9,7.1],[80.1,6.1],[80,9.8],[81.9,7.1]]]]}},{"type":"Feature","properties":{"name":"Taiwan"},"geometry":{"type":"MultiPolygon","coordinates":[[[[121.9,25],[120.7,21.9],[120.2,23.8],[121.9,25]]]]}},{"type":"Feature","properties":{"name":"Japan"},"geometry":{"type":"MultiPolygon","coordinates":[[[[131.7,32.5],[130.7,31],[129.6,33.4],[131,34],[131.7,32.5]]],[[[134.7,33.8],[133,32.7],[132,33.3],[134.7,33.8]]],[[[133.4,34.4],[130.9,33.9],[138.6,37.4],[139.9,40.6],[141.5,41.4],[142.1,39.5],[140.4,35.2],[136.8,35.1],[135.8,33.4],[135.4,34.7],[133.4,34.4]]],[[[145.8,43.4],[143.2,41.9],[140.5,42.6],[141.2,41.8],[140.2,41.4],[139.8,42.3],[141.4,43.3],[141.9,45.5],[145.8,43.4]]]]}},{"type":"Feature","properties":{"name":"Iceland"},"geometry":{"type":"MultiPolygon","coordinates":[[[[-14.6,66.4],[-13.8,64.8],[-18.7,63.4],[-22.7,63.8],[-21.5,64.7],[-24.1,64.9],[-21.7,65.5],[-24.5,65.5],[-22.4,65.9],[-23,66.5],[-21.1,65.2],[-20.4,66.1],[-14.6,66.4]]]]}},{"type":"Feature","properties":{"name":"French Southern and Antarctic Lands"},"geometry":{"type":"MultiPolygon","coordinates":[[[[70.5,-49.2],[68.8,-49.7],[69,-48.7],[70.5,-49.2]]]]}}]}